[{"OBJECT_NAME":"STARLINK-1526","OBJECT_ID":"2020-055C","EPOCH":"2026-03-10T00:00:02.999808","MEAN_MOTION":15.19094638,"ECCENTRICITY":8.938e-5,"INCLINATION":53.1067,"RA_OF_ASC_NODE":124.7929,"ARG_OF_PERICENTER":56.7447,"MEAN_ANOMALY":353.5398,"EPHEMERIS_TYPE":0,"CLASSIFICATION_TYPE":"U","NORAD_CAT_ID":46029,"ELEMENT_SET_NO":999,"REV_AT_EPOCH":569,"BSTAR":0.0056326704,"MEAN_MOTION_DOT":0.00121352,"MEAN_MOTION_DDOT":0},{"OBJECT_NAME":"NOAA 16 DEB","OBJECT_ID":"2000-055DS","EPOCH":"2026-03-09T10:20:12.139584","MEAN_MOTION":15.17502784,"ECCENTRICITY":0.00045067,"INCLINATION":98.9649,"RA_OF_ASC_NODE":299.1853,"ARG_OF_PERICENTER":45.4311,"MEAN_ANOMALY":314.7285,"EPHEMERIS_TYPE":0,"CLASSIFICATION_TYPE":"U","NORAD_CAT_ID":41213,"ELEMENT_SET_NO":999,"REV_AT_EPOCH":53413,"BSTAR":0.0096847597,"MEAN_MOTION_DOT":0.00199382,"MEAN_MOTION_DDOT":0}]
